{"type":"FeatureCollection","features":[{"type":"Feature","id":1,"geometry":{"type":"Polygon","coordinates":[[[76.959637351859257,28.445777153489747],[76.95984109436192,28.445426903960062],[76.960223501682748,28.44476951569122],[76.960904021000033,28.443599620139839],[76.960947136978476,28.443525496194336],[76.960993714478462,28.44351846846396],[76.961039164933354,28.443511611270534],[76.961158972030276,28.442552041814722],[76.961321355539468,28.441251447130249],[76.961305927891985,28.441176725925359],[76.961240855567183,28.440861568175333],[76.960523956629842,28.437389379302552],[76.960114862124044,28.433487326669884],[76.960132765850247,28.430576568457276],[76.960144051205717,28.428742359161799],[76.960325916035742,28.427401253945906],[76.96094206320258,28.422857509349956],[76.961148374423331,28.42133601340749],[76.961158592855909,28.421275323507029],[76.961720899659895,28.417935519972811],[76.962205840411357,28.415160660711408],[76.962401329671181,28.414042018807251],[76.962588454082777,28.41297123237208],[76.962596483347539,28.412925287275339],[76.962600335929906,28.412903240652319],[76.962867111840424,28.412250033165183],[76.964218142282149,28.408941871655376],[76.964262282273296,28.408833787167211],[76.968080072599832,28.402188986796208],[76.969927056824346,28.399732697277383],[76.971159390311016,28.398385468362548],[76.972895716319726,28.396698073654225],[76.974143386883583,28.395485521728087],[76.974556077089488,28.395084438451235],[76.975564616742389,28.394104245635351],[76.975694131337491,28.394012672930398],[76.976917003886655,28.39314803638965],[76.978890751333921,28.391752437323607],[76.98321044124252,28.388441760992027],[76.984651887907305,28.389870002177954],[76.985777825563005,28.391028261576885],[76.986724585916534,28.391988571512851],[76.98718181834775,28.392471346121258],[76.987526195454137,28.392825618581178],[76.98820030229767,28.391985678750846],[76.988830177480864,28.391244936753214],[76.989369272514125,28.390732813465117],[76.990296141071099,28.389934243255396],[76.990771760164407,28.389493713801009],[76.991239559840821,28.389097226655675],[76.991776312612487,28.388692090242152],[76.992022586398718,28.388476201022211],[76.992243854009814,28.388282234012841],[76.992909894631381,28.387745319637538],[76.993671172677622,28.387103865758547],[76.994244418075809,28.386572124023733],[76.995767294273051,28.385215498326851],[76.996766135300064,28.384343730765746],[76.997942577181334,28.383297448219174],[76.994758799792336,28.375885091134567],[76.994754095323771,28.375874136556366],[76.993346943704424,28.373921502918403],[76.993930378255129,28.373560347772536],[76.994159218195264,28.373418691382959],[76.994750346686615,28.372802414456597],[76.994883471365128,28.372709788296852],[76.995164860481879,28.372478417165631],[76.995397063848174,28.372302236009652],[76.99551838280594,28.372216299116722],[76.995787926690014,28.372062714698608],[76.995816663515981,28.372043564046823],[76.995906071364786,28.371983986145523],[76.996195365662317,28.37179121014811],[76.99625177394698,28.371753620918909],[76.996471804099585,28.371624159221547],[76.996729497364086,28.371498862045225],[76.996820439506422,28.371448642213537],[76.996978543504483,28.371377977417492],[76.99709223367563,28.371530890416306],[76.997285290149875,28.37179055000194],[76.997485376638679,28.372051928121419],[76.997510605556684,28.372084884008697],[76.997973917007428,28.372919107469855],[76.99820602696046,28.373315070017117],[76.999025811885346,28.374505457023115],[76.99901851092514,28.374505461262945],[76.999840710951773,28.375641720441209],[76.999973602914039,28.375825372513752],[77.000138686821117,28.376927099794404],[77.000279281934283,28.377816570043613],[77.00046602805395,28.378391253348973],[77.000574816494535,28.37872603020773],[77.000666448653234,28.378938659691709],[77.000719766221195,28.379074268166327],[77.00081662171165,28.379049290208936],[77.001295905574764,28.378859013519037],[77.00169393759289,28.378667653166229],[77.001987645919527,28.378528211507433],[77.002298932986037,28.378377837602866],[77.002372511043475,28.37833585248837],[77.002444347689504,28.378306318640632],[77.002552605283057,28.37826181143901],[77.002616431935749,28.37823849438989],[77.002679316384857,28.378214828406144],[77.002918191672663,28.378124927185066],[77.003308844038486,28.377977904311368],[77.003370777272153,28.377956356343539],[77.003389052706098,28.377949996589404],[77.003549769983977,28.377894078238203],[77.003911299100835,28.377773745577972],[77.004000643462589,28.377744007576933],[77.00406215172454,28.377720656292212],[77.004509328059669,28.377550888093559],[77.004693596988176,28.377488590460885],[77.004753597409561,28.377464179111517],[77.005193216830364,28.377290864408092],[77.005445100152542,28.377191560520497],[77.005615214734064,28.377117624540961],[77.006136705271899,28.376890968827961],[77.006609696218234,28.376659000308827],[77.006721024149471,28.376608681220411],[77.006828417609114,28.37656014262722],[77.007381846148647,28.376278851403725],[77.007520179510394,28.376214197551597],[77.008211995790234,28.375853133538072],[77.008652227676578,28.375628803177602],[77.008903972875416,28.375446723109832],[77.00942294439966,28.375062327725455],[77.009488314237856,28.375017687884888],[77.009596221435629,28.374964733332565],[77.009734560883544,28.374898564859638],[77.010287910772291,28.374633889734138],[77.010979593628335,28.374303043757831],[77.011016276367485,28.374290131732458],[77.011048722939563,28.374280841179896],[77.01125627373878,28.374168479608073],[77.011671329541883,28.373957077968846],[77.012363002384404,28.373626226294014],[77.012591224984433,28.373519056541305],[77.012642212664048,28.373507680703103],[77.012657228708932,28.373500329259155],[77.012642554447055,28.373483095015207],[77.012368809102796,28.373254875386245],[77.012368947705667,28.373209363957749],[77.012101984324147,28.372971960290588],[77.012082547803928,28.37295467718695],[77.012061039036368,28.372935549547634],[77.012031520917972,28.372885752999757],[77.011745801590607,28.372403765599579],[77.011736829573664,28.372388628998173],[77.01168568740988,28.372286105584518],[77.011591435478579,28.372097155759359],[77.011469720746078,28.371853145050167],[77.011464077589849,28.371841833177736],[77.011236731295853,28.371302732423025],[77.011233529430115,28.371295141990093],[77.011106609185632,28.370961083122328],[77.011089759168669,28.370926044474828],[77.011006219681292,28.370752329627834],[77.011004354989566,28.37074845076998],[77.010983119568863,28.370691587942336],[77.01089167387768,28.370446703951394],[77.010870157000298,28.370389083649354],[77.010800307365884,28.370202045203623],[77.010800224542649,28.370201819027528],[77.01060967733406,28.369731074632913],[77.010578943692678,28.369655146632116],[77.010577502011202,28.369651678422322],[77.010534576629226,28.369548528794599],[77.010493187549415,28.369442553709472],[77.01032306810734,28.369202197549598],[77.010256557533864,28.369108226372866],[77.010188165521228,28.369040211732553],[77.010263796235762,28.369025838403751],[77.010323704396853,28.368998802045581],[77.010327906577459,28.36899690462608],[77.010556040030679,28.368893948494971],[77.01085537680629,28.368716741672429],[77.011010984935169,28.368624620450639],[77.011122493689712,28.368564211387966],[77.01169859838754,28.368140848147863],[77.01238606877692,28.36770258228707],[77.012493401234252,28.367654988878606],[77.012769963835765,28.367475961306926],[77.01307348317016,28.367279483761351],[77.013276421060624,28.367217829818703],[77.013760530232574,28.366973077779544],[77.01388072524999,28.366932524876979],[77.01414799192159,28.366698638672723],[77.014447735486385,28.366615321987819],[77.014825833192901,28.366373509405488],[77.015100719219404,28.366228046029125],[77.015135087378226,28.366207383351906],[77.015476371215982,28.366003800999451],[77.015607720607619,28.365844436772999],[77.015823275308009,28.36552637912774],[77.016119738654083,28.365370022450666],[77.016173947709206,28.365445397018849],[77.0165101601809,28.365266860403107],[77.016945704530031,28.365035572057288],[77.017034503222703,28.364987784783441],[77.017197365197532,28.364900631638925],[77.017367315705812,28.364809685385495],[77.017480004489997,28.364756676806863],[77.017617905642965,28.364691809498652],[77.017894015241552,28.364566642250754],[77.018132481444667,28.364423651461326],[77.018348332557693,28.364318633137906],[77.018560512793087,28.364215398702399],[77.018627427195767,28.364182842648585],[77.018766180688885,28.364114092227972],[77.01879847074548,28.364098513638258],[77.018964016184555,28.364018646886095],[77.019258721682789,28.363880752378954],[77.019691524535929,28.36367824220266],[77.019945789096937,28.363555264390964],[77.019954236111332,28.363551177786874],[77.020098085297946,28.363481603377128],[77.020104588335556,28.363478456070609],[77.020532416586008,28.363271526857794],[77.020601705122942,28.36323511764369],[77.020632882582106,28.363218457847079],[77.020805513378065,28.363126217059175],[77.020923925041998,28.363062944845787],[77.021319966677211,28.36288289699835],[77.021389144649461,28.362851446669282],[77.02158933258734,28.362770460276074],[77.021901345168644,28.362658562570665],[77.022006843066961,28.362615973879869],[77.022313034077698,28.362492364926958],[77.022320710233359,28.362489652200221],[77.022417892977032,28.362455314238527],[77.022436486011671,28.362448745206443],[77.022562792319192,28.362403733072277],[77.022653062041698,28.362366955554482],[77.022870213875194,28.362278484890922],[77.023226658096718,28.362133260762292],[77.023443751925996,28.362013289207695],[77.023788401364058,28.361831335406436],[77.023854839373413,28.361796259124393],[77.024210318566318,28.361645713835706],[77.024357067181299,28.361587993408342],[77.024409636006013,28.361567314442528],[77.024644478766149,28.361442996008236],[77.024724312548528,28.361407646335767],[77.024754767666323,28.361394161880458],[77.024784662303105,28.3613809239707],[77.025398506564443,28.361799322331631],[77.025486625103255,28.361868238914983],[77.025516514347501,28.361891614601557],[77.025639132485594,28.361987512693318],[77.02571330181226,28.362045520130849],[77.025765817395339,28.362079558461129],[77.02612414397305,28.362311805482658],[77.026198186614252,28.362350072465905],[77.026200191201937,28.362351522552089],[77.026301164771567,28.362424532815595],[77.026534941523693,28.362593565818742],[77.026808954590692,28.362731305934219],[77.026892679565478,28.362791557348171],[77.026995212251293,28.362865343373315],[77.027116227993787,28.362956993850805],[77.027281831891329,28.363082413616585],[77.027292531216119,28.363090516566036],[77.027360003132387,28.363141614855561],[77.027469712090408,28.363237661685794],[77.02749345343058,28.363258447419799],[77.027587579868282,28.363357984407997],[77.027714942163428,28.363492668642074],[77.027900602641196,28.363688996966442],[77.028142985599473,28.363964282861104],[77.028200080701978,28.364029126597952],[77.028235819655407,28.364069715710361],[77.028295943898357,28.364138001077556],[77.028363438682078,28.364178871027967],[77.028773592938933,28.364566076362653],[77.028982965843397,28.364783095107878],[77.029296913649674,28.365102863941715],[77.029594003694768,28.365454076101923],[77.02975184635855,28.365640671442062],[77.029937049776279,28.365867517060785],[77.02994717307584,28.365878239815505],[77.029952728248944,28.365886723255585],[77.02999014993064,28.365943878636223],[77.030001599822242,28.365946582129389],[77.030288437828773,28.366014322764489],[77.03030143038707,28.366032678291582],[77.030358176238281,28.366038173842099],[77.030375177214935,28.366039820946988],[77.030412873249162,28.366070599494645],[77.030484993936511,28.366046187935808],[77.030766864424734,28.365950782983951],[77.031056362966865,28.365884444566476],[77.031294476597637,28.365814336139021],[77.031396936687727,28.365791629463626],[77.031498510762518,28.365750907508112],[77.031553779997708,28.365728918591213],[77.031779964127736,28.365677178003192],[77.031859937784873,28.365658884925214],[77.032141796535228,28.365594409646835],[77.032460072314379,28.365521604169995],[77.033140175195996,28.365366024378893],[77.03324720455953,28.365341541796205],[77.033820276972435,28.365210444883896],[77.034500378560296,28.365054860257153],[77.034844228715585,28.364983458734905],[77.035065012147285,28.364922919555479],[77.035859454392423,28.364665263225664],[77.036021354871068,28.36459921967699],[77.037292705868239,28.364066692181513],[77.037735053476908,28.363864273726371],[77.037807253545878,28.363832605792606],[77.037858137656926,28.363810288332925],[77.038530094519771,28.363500454326594],[77.038536285299273,28.363497599586747],[77.03853675897102,28.363497403005017],[77.038737725140024,28.363414422949962],[77.038756753428373,28.363403723200186],[77.038819563860386,28.363511659495],[77.038827502148095,28.36352774633534],[77.038796788729641,28.363442972798463],[77.039228614680653,28.363242667906437],[77.039451679047644,28.363139089955087],[77.039503181623161,28.36311052820232],[77.039745326444375,28.363002482699294],[77.040138021729959,28.362822361849737],[77.040824352456141,28.362507146572312],[77.04091017394741,28.362462066067707],[77.041510697276195,28.36218814233532],[77.041842247309418,28.362026591913885],[77.042197076472419,28.361861564317227],[77.042883440761798,28.361537255356183],[77.043018858603347,28.361472281104497],[77.044335141738159,28.360840488440925],[77.044974039981554,28.360537469648381],[77.044991137739899,28.360529359842257],[77.044997671148792,28.360525239978486],[77.044792014919267,28.360162674664739],[77.044538874638178,28.359759276372976],[77.044483377730472,28.359650674533462],[77.044467977924199,28.359620542754186],[77.044429049928723,28.359544357964975],[77.044358129177709,28.35940557861457],[77.044133906539955,28.359078463845261],[77.044006511133261,28.358892608406151],[77.043970578976285,28.358837619301816],[77.043773836980748,28.358536523818948],[77.043738465188369,28.358482390705689],[77.043654125962703,28.358353314007978],[77.0434589495935,28.357994339363],[77.043442909557058,28.357964837867289],[77.043216257674089,28.357815299019702],[77.043049575295242,28.357672775580806],[77.042844594192303,28.357497502445955],[77.042793190833478,28.357454039754732],[77.042632931856105,28.357318536451128],[77.041985362447306,28.356770987385342],[77.041964395069812,28.356744900060463],[77.041940859852559,28.356722953353369],[77.041660916803806,28.356461884386679],[77.041646221133192,28.356205088091361],[77.041601604620155,28.355661174790317],[77.041574082237659,28.355117006309598],[77.04156365880668,28.354572581694512],[77.04155907473077,28.354481921931775],[77.041536138301922,28.354028413987095],[77.04145732941987,28.353485013391996],[77.041426578121531,28.353214123286421],[77.041395615652675,28.352941355789177],[77.041333906774852,28.352397698024223],[77.041337680587034,28.352396454000608],[77.041334074277501,28.352385234735948],[77.041646685779881,28.352263139203821],[77.041853390724896,28.352196352549623],[77.041733796147511,28.351847127701163],[77.041586603878798,28.351304750236984],[77.041439410254341,28.350762374346115],[77.041291822629134,28.350280622400039],[77.041009616665434,28.349750292610267],[77.040397340742061,28.3485996529635],[77.040382603527348,28.348571959687138],[77.040343650887721,28.348515328035674],[77.039777001376393,28.347668158628647],[77.039032977150327,28.346456359234221],[77.038836657867904,28.345900096671315],[77.038278192405826,28.345908448328505],[77.03843035490587,28.345644223227314],[77.038006281750356,28.345053520489031],[77.0384069829786,28.344203116810007],[77.038259373063596,28.343154726449693],[77.038836702361237,28.342316814905402],[77.039002808873121,28.341739898691987],[77.039162279564778,28.341711921015694],[77.039226427867774,28.341700666577509],[77.039526127978334,28.34164808622473],[77.040086425294376,28.341549780060742],[77.040208930926113,28.34155804107019],[77.040892636579969,28.34160413912949],[77.041091080802587,28.341617519758277],[77.041574358107411,28.341351109576756],[77.041929326104125,28.341155432848762],[77.041948063817031,28.341142237572338],[77.042254937295624,28.340926130536943],[77.042726309301585,28.340594186169717],[77.042728868449572,28.340592381899921],[77.042821529864781,28.34024438088699],[77.042936406752659,28.339812931729718],[77.043079070046375,28.339012020408461],[77.043090706299793,28.338450849540383],[77.043078393826065,28.337957225026724],[77.04300413927929,28.337084804863377],[77.042884965117338,28.336511414549086],[77.042652842369051,28.335695117240249],[77.042610011443699,28.33544212834056],[77.042673390570783,28.33541285191917],[77.042927975303314,28.335324993744536],[77.043619681382012,28.335006620580671],[77.043985415517596,28.334742023808698],[77.044387415115224,28.334464522756264],[77.044759217234443,28.334213690724894],[77.045012316172858,28.334022363061653],[77.045106908903819,28.333676613812457],[77.04525793551116,28.333135501156015],[77.045259852086829,28.333125825202746],[77.045344326682752,28.332699323065501],[77.045443099427004,28.33259509006859],[77.046049900936111,28.33206332712804],[77.046086440499977,28.33202338611731],[77.046538605504892,28.331529139571561],[77.046755774369316,28.331319832405086],[77.046971636099059,28.330993810693304],[77.047034767291194,28.330942918074498],[77.047310427764273,28.330456546470742],[77.047538495536656,28.330131747525186],[77.04764921515681,28.329919283362916],[77.048005072596538,28.329382366877208],[77.04807414168107,28.329257183912777],[77.0485605618818,28.329046063337113],[77.049009612947145,28.328858745631155],[77.049248602392964,28.328863643816852],[77.049931430151034,28.328877632567707],[77.050047509182988,28.328880010871941],[77.050610248829813,28.329042705420328],[77.050872210182931,28.329135233382154],[77.051290764392675,28.329143803110597],[77.051423187350593,28.329159139656813],[77.051975101795605,28.329100884512798],[77.05206043961185,28.329103150559821],[77.05266073257917,28.329009098876178],[77.053051925039355,28.328929212712147],[77.053355969918201,28.328554703010077],[77.054035190478487,28.328704649738871],[77.054714816556313,28.328839485817372],[77.055357232473867,28.328444467240395],[77.055409643768641,28.328400187979373],[77.055667540726944,28.328240719315378],[77.056098464179556,28.328187516009564],[77.056571050477345,28.328123258170727],[77.056700706663179,28.327927719838517],[77.056791682415835,28.327808644503307],[77.056980051414328,28.327562153789522],[77.057015573170233,28.327515674213348],[77.057005342845656,28.327463854999994],[77.056990652165467,28.327389439260067],[77.056953570268178,28.327185323219858],[77.057196222726631,28.327130443786306],[77.057379293164004,28.327092965065543],[77.057645578740789,28.327038449373486],[77.057878576655099,28.326990744707956],[77.058378812313961,28.326877238558829],[77.058560828133565,28.326835937342157],[77.05864534658555,28.326813040243412],[77.059242920617024,28.326657709074734],[77.059359976574783,28.326636103403626],[77.060007335212831,28.32639960227635],[77.060406402392601,28.326204139918101],[77.060982182502897,28.326312300317262],[77.061079602252761,28.326219120243142],[77.061173591652249,28.326258220664506],[77.061320213990186,28.326075548594726],[77.061406025101888,28.325968633796947],[77.061611746677386,28.326148413911525],[77.061618253657372,28.326133291217364],[77.061738553986302,28.325853760741232],[77.061766169879277,28.325789588661472],[77.061845608747774,28.325800578860118],[77.062303396549112,28.32586392364427],[77.062308505346877,28.325865386739061],[77.062471274237595,28.325910997350693],[77.062990113546078,28.325924636745153],[77.063264548418417,28.325927257283055],[77.063476061384648,28.325929276162729],[77.063673115231765,28.325931155226659],[77.063923014402874,28.32595315570439],[77.064021292461518,28.325968076309245],[77.064239678672621,28.326003646312699],[77.064691649766687,28.326000062482681],[77.064704870558856,28.326009628634605],[77.065075290582811,28.326146381547662],[77.065388857837306,28.326111607015104],[77.065463729753546,28.326099138749004],[77.065477726811551,28.326089781364125],[77.065543816833213,28.326045595358057],[77.065545498136601,28.326044471724042],[77.065589471578178,28.326022772685228],[77.06567469272224,28.325974480826414],[77.065718927277814,28.325949412885507],[77.065722324489784,28.325942733589443],[77.065890332183898,28.325612381837455],[77.065900245881963,28.325603231535212],[77.06605447133704,28.325460870767664],[77.066067635971493,28.325452085398915],[77.066124770589425,28.325413955168464],[77.066152053661369,28.3253973508372],[77.066549806584291,28.325155279415227],[77.066577954314795,28.325138149362147],[77.066748091354896,28.325038404473581],[77.066975404101214,28.324933789245854],[77.067033292772976,28.324907147828302],[77.067103792735224,28.324874701687989],[77.067111790911085,28.324871019766629],[77.067117001650956,28.324868265301888],[77.067735066839219,28.324541594177369],[77.068110393992015,28.324416474133155],[77.068613184114724,28.324232203300031],[77.068791291003521,28.324069265474989],[77.068835421451411,28.324046220342815],[77.069052047595989,28.323933111122422],[77.06902040339439,28.323886939914825],[77.068986530232081,28.323837515203593],[77.068992720586053,28.323824744040582],[77.069070458027056,28.32366435144549],[77.06920107926139,28.323580156031912],[77.069294744902365,28.323519781258607],[77.069470013928225,28.323406806987197],[77.069610107398049,28.323293105575416],[77.069897296059921,28.323060018613596],[77.069919831961371,28.323041727798845],[77.070149680239567,28.322882273177264],[77.070196909350017,28.322849832146829],[77.070306638364102,28.32276307064501],[77.070417070041756,28.322676426531213],[77.070595141225496,28.322620921238869],[77.070547893656851,28.322494364887813],[77.070455244592395,28.322221890113596],[77.070427474717036,28.32214022470928],[77.070511465529179,28.322117327571462],[77.070827090945428,28.322031275523916],[77.071119763410081,28.321947900232892],[77.071511265901876,28.32216343753878],[77.07152272036646,28.322171520200989],[77.071887697032921,28.32242907331457],[77.071927355759613,28.32245777061879],[77.071966704561277,28.322486470813146],[77.072197912329997,28.322653526674795],[77.072526181240235,28.323027226077905],[77.072725107889156,28.323245051804697],[77.072779978619764,28.323330809445089],[77.072886299154916,28.323394870356537],[77.073146227416657,28.323567640322231],[77.073431753936049,28.323837569380178],[77.073573112357934,28.323907101447247],[77.07394293455485,28.324069959818807],[77.073943192733438,28.324070074102682],[77.074106282214117,28.324146032066565],[77.074154914413896,28.324118349962454],[77.074171070996499,28.324129510122933],[77.074257579214901,28.324079413157005],[77.074558677271199,28.323905044597872],[77.07468029047088,28.323807078424515],[77.074915804801719,28.323557757678515],[77.075022342003848,28.32344497459508],[77.075425639581638,28.323069600226944],[77.075487597992634,28.323010689108273],[77.075590093868357,28.3229132323141],[77.075751399533786,28.32269760998242],[77.075773162567586,28.322668519735323],[77.076061066310871,28.322827136176304],[77.076069518754665,28.322831793653602],[77.076298574531535,28.322805893820149],[77.076692320059649,28.322761368646653],[77.076753009068085,28.32276922920979],[77.077285936129996,28.322769692840804],[77.077397344183979,28.322769789297702],[77.077517520654325,28.32275576286003],[77.077549443720727,28.32275203722093],[77.077664603676695,28.322733274775747],[77.078119590201936,28.322659147545668],[77.078347210777579,28.32263831034566],[77.078402931305661,28.322633210399115],[77.07880307650494,28.322596572959696],[77.079030109899364,28.322585507091862],[77.079364683127665,28.322569194951207],[77.079486164580686,28.322549054180904],[77.079615964950065,28.322511204941183],[77.079628083996056,28.322509865171526],[77.079712909909063,28.322518647724099],[77.080181309924086,28.322544871566087],[77.080192002386283,28.322548298999997],[77.080257256072883,28.322569210477688],[77.080378919336724,28.322742560526265],[77.08039187794067,28.322761027270218],[77.080397858096376,28.322760156432928],[77.080846055001487,28.322694928911883],[77.081021598136289,28.322647004191072],[77.081080224380528,28.322630998051512],[77.081339460032751,28.322560226183878],[77.081533469593893,28.322481761220722],[77.081613613198741,28.322449846425521],[77.08165786406407,28.322432224006803],[77.081739780926128,28.322630118815368],[77.081781530327689,28.322615579081511],[77.081919939977027,28.322962510318902],[77.082112064269836,28.32350689554718],[77.082244840582504,28.323893394947703],[77.081932418124893,28.324058076566278],[77.081803880403868,28.324121305618362],[77.081545240811352,28.324282331281101],[77.081511037051314,28.324407391135999],[77.081198109418082,28.324582656298841],[77.081130304083402,28.32462063329616],[77.081094273469546,28.324643275407187],[77.081060424958139,28.324664547827819],[77.080641160082649,28.324928028740068],[77.080656835515967,28.324964442497226],[77.08074770726266,28.325175521843622],[77.080837599233163,28.325426582363924],[77.080944945865426,28.32571981709021],[77.081159238412525,28.326263801210001],[77.081366714413718,28.326807909641243],[77.081498547143624,28.327125108505108],[77.081580164467155,28.327351907521468],[77.081785085279492,28.327896062196171],[77.0818290278647,28.328018930465866],[77.081925158958782,28.328245496846353],[77.081991814109102,28.328412843834407],[77.08200650069486,28.328439911430301],[77.082286008642626,28.328955051870114],[77.082299150917464,28.328982460632687],[77.082346019307934,28.32908022016078],[77.082546046506707,28.329497452192165],[77.082559541912332,28.329525599974822],[77.082806086146775,28.330039851854039],[77.082819463712525,28.3300687476519],[77.083057243916514,28.330582302614484],[77.083070186646594,28.330612059552902],[77.083292063678073,28.331122186986562],[77.083293216802446,28.331124837639308],[77.083308934690578,28.331155591672339],[77.083518303955017,28.331565216696728],[77.083875184636753,28.33146097987316],[77.08394555843681,28.33143514938612],[77.083946674745221,28.331437480258764],[77.084055300283595,28.331664395255192],[77.084307494415327,28.332206834598711],[77.084351218909234,28.332312685819506],[77.084628194438608,28.33274888767113],[77.084771900638259,28.333050403049466],[77.084803353965114,28.333116389726371],[77.084836201564926,28.333185306683855],[77.084886714699948,28.333291293032573],[77.0849357047924,28.333378816994443],[77.085021581752528,28.333532247187641],[77.085190164182976,28.333833440349078],[77.085194053334106,28.333840043874755],[77.085281165105556,28.333987939794365],[77.085467021268741,28.334301505897781],[77.085510874980372,28.334375488909437],[77.085638039555576,28.334604311540541],[77.085731466046127,28.334728532913633],[77.085873437523972,28.334917300697025],[77.085873812707092,28.334918077300085],[77.085950587321861,28.335077575372008],[77.086114340928376,28.335406170610334],[77.086231627478639,28.335405504387257],[77.086636226496864,28.335403205296927],[77.08691332512673,28.335401630770328],[77.087012050154456,28.335401070152081],[77.087106280071993,28.335437467397018],[77.087320397884397,28.335520175659852],[77.087601443190295,28.335624871807497],[77.087933563664478,28.335748589345609],[77.088005528792081,28.335773375146317],[77.088290457938399,28.335879683316737],[77.088425580093897,28.335930095918272],[77.088444111231965,28.335937245720775],[77.088476758887225,28.335949844311976],[77.088577743644322,28.335988812531074],[77.088819141784086,28.336052169163651],[77.088878659512588,28.336387118914459],[77.08893705801411,28.33678863341888],[77.088943250861689,28.336831223482907],[77.088958181229998,28.336933866675675],[77.089011018127891,28.337188259073503],[77.088872552628942,28.337483700918103],[77.088814839958843,28.337611315959727],[77.088812280259333,28.337619926622512],[77.088788080540624,28.337670488900091],[77.088738336918794,28.33778047890064],[77.08862250116907,28.338036611186084],[77.088508165274732,28.338336536890665],[77.088464172249545,28.33845194759834],[77.088412009704001,28.338588778948829],[77.088338053138202,28.338775563555743],[77.088307190344196,28.338862740627224],[77.088184457569,28.339141267241693],[77.088159351745432,28.339202369249854],[77.088107497465131,28.339507857358399],[77.088076320891687,28.33969152332433],[77.087998571772644,28.339800031646693],[77.087897014145881,28.339941769991196],[77.087678167015596,28.340247198857952],[77.087616317830907,28.34034607637189],[77.087548290395972,28.34045483446786],[77.087357343030263,28.340760104649743],[77.087331186079624,28.340801919469506],[77.087345721837934,28.340845463810652],[77.087513064174487,28.341346753639755],[77.087650889128085,28.341674330088562],[77.087708993937326,28.341783819029793],[77.087709818525497,28.341784991194498],[77.087783550517031,28.341889932095111],[77.087805380874926,28.341921001536758],[77.087844293209983,28.341976380496028],[77.087966685667837,28.342151000342579],[77.088223982635554,28.342518085163693],[77.088363902574613,28.342707908807661],[77.088534483271587,28.342939324023476],[77.088620759083909,28.343059691984095],[77.088741442334808,28.343214177734357],[77.089051706940594,28.343601103272587],[77.089244189533986,28.343846934455904],[77.089310317560944,28.343931387491391],[77.089490860709788,28.344142463942365],[77.089656285471563,28.344348361321817],[77.089659560222657,28.344347512551188],[77.089809816307721,28.344308629182905],[77.09011542240178,28.344229542237649],[77.090488624221095,28.344120637739813],[77.090678950307947,28.344065098865325],[77.090696274965936,28.344060042631472],[77.090761208573738,28.344059671382979],[77.090797670035286,28.344066568412881],[77.091084139930302,28.344120764114138],[77.091173206033361,28.344212865544858],[77.09125106872564,28.344290681264098],[77.091553722591073,28.344674542845734],[77.091665818392983,28.344834572487589],[77.092170125518535,28.344863202498139],[77.092853804371174,28.34490201536784],[77.093084331502013,28.344914844410063],[77.093095182488668,28.345209577922539],[77.093099049416097,28.345753421520392],[77.093102916570601,28.346297265075574],[77.093130696637161,28.346392646614134],[77.093439697874928,28.346409623804071],[77.093547976868706,28.346415572522883],[77.093744667958006,28.346426377051316],[77.094040690978431,28.346590431403687],[77.09423373087786,28.346743998039312],[77.094861331241759,28.347374902428811],[77.095061603842382,28.347572182893568],[77.095101331059993,28.347611203629988],[77.095163486608584,28.347672250752719],[77.09526567764766,28.34778042411272],[77.095393481544406,28.34791570736753],[77.095611608419333,28.348292135797276],[77.095629745499764,28.348321828564131],[77.095868438402249,28.348712605360795],[77.095964840833815,28.348863777449282],[77.096050876174687,28.3489986878851],[77.096051488697313,28.348999649396184],[77.096202981711627,28.349293559776147],[77.096302063038607,28.349276182004107],[77.096487843578615,28.349245251322237],[77.096741384913571,28.349375837434167],[77.096781860929795,28.349396683615836],[77.09705570449519,28.349537730009931],[77.097101246776745,28.349592091726141],[77.097266302290194,28.349789116235144],[77.097349232998937,28.349888112180583],[77.097387302214145,28.349933557142496],[77.097431424314436,28.349986223411275],[77.097555066227471,28.350078715866147],[77.097675316401691,28.350169525170539],[77.097893753492116,28.350303668385209],[77.098035061458432,28.350417057621691],[77.098285935516728,28.350618359087147],[77.09836230849011,28.350665975375023],[77.098895507102114,28.351158703420683],[77.099049167947669,28.351142709370201],[77.099732452644261,28.35112099236753],[77.100022430033164,28.351111774866951],[77.10011247393264,28.351695528081969],[77.100182891996084,28.351784720474694],[77.100420487187691,28.351760217470467],[77.101103427916428,28.351689790010845],[77.101163166052913,28.351683627539217],[77.101705331359639,28.352230163306793],[77.101881484203474,28.352397631054199],[77.101931356172813,28.352772714181],[77.101997629383661,28.353271148805366],[77.102003614395571,28.353316160351714],[77.102075871429989,28.353859602827711],[77.102137626870245,28.354131282104078],[77.102131046738137,28.354403146197633],[77.102117875378184,28.354947085679793],[77.102104706147273,28.355491026900026],[77.102097435463065,28.3555965800854],[77.102499099898694,28.355685130844197],[77.103134494568579,28.355862561310104],[77.103183957613552,28.355877546793792],[77.103538941940258,28.356026554498591],[77.103869582338561,28.356175705072346],[77.103885865948968,28.356180279490957],[77.104554498578182,28.35637536515345],[77.104873750230979,28.356457825178307],[77.105239311502103,28.356560519874275],[77.105923851315154,28.356707600796003],[77.106608530008671,28.356873452961214],[77.106928564722466,28.356951463621183],[77.107293325326864,28.357055382294011],[77.107506904991695,28.357133178471216],[77.107977262129197,28.357118610658553],[77.108522624581695,28.357097607686253],[77.108660864960953,28.35713576067873],[77.109099184089828,28.357293876342577],[77.109346138349508,28.357382528098739],[77.10983033055507,28.357571674996894],[77.10990490858282,28.357620967967705],[77.110031836954278,28.357687451374144],[77.110717711291784,28.358015958293194],[77.110961386044409,28.358158631484045],[77.111403801921952,28.358373577767363],[77.111553420565514,28.358433001069731],[77.111881988501892,28.358579199330688],[77.112057311487945,28.358265001852594],[77.112086116089174,28.358213376388719],[77.112119839737105,28.358151823810203],[77.112264166158084,28.357877007344136],[77.112406339956735,28.357606281040901],[77.112554954617309,28.35732328938694],[77.112607195562674,28.357223812056212],[77.112692835300109,28.357060735110355],[77.112735514470131,28.356970398695307],[77.112827131113292,28.356769922543577],[77.112943448513946,28.356515399274713],[77.113090039176441,28.356216729585345],[77.113131465309621,28.356132325543701],[77.113172698928238,28.355970190290794],[77.113271408118621,28.355665076454553],[77.113348983391532,28.355425291430933],[77.113382273844067,28.35526173716665],[77.113413505155421,28.355114163741725],[77.113462901140295,28.354880760194757],[77.11352765632337,28.354677147580077],[77.113596301508593,28.354562484495506],[77.113732297928181,28.354335314145711],[77.113906468518522,28.354045140207539],[77.113928772545478,28.35400797690896],[77.113950365617512,28.353971998581308],[77.114004640624927,28.353881571326905],[77.114142700109269,28.354003935561451],[77.114230483655334,28.35408173576657],[77.114511408053858,28.354330720283858],[77.114621609735906,28.354446149379488],[77.11479559442698,28.354872906046424],[77.114946059981705,28.355306120850759],[77.114984104626998,28.355415653403238],[77.115221822457002,28.355958111437197],[77.115254553037246,28.356059817313202],[77.115489498326781,28.35629795485475],[77.115941505008863,28.356709986001828],[77.116069372511333,28.356865643852586],[77.116212585490743,28.357039981832489],[77.116496452448118,28.357361459809152],[77.116609556558743,28.357581493827279],[77.116660434045457,28.357679604980103],[77.116695005082164,28.357746270959055],[77.11664638992481,28.357905726237075],[77.116743463363221,28.358065304871573],[77.11687750738173,28.358284185958443],[77.117021236982538,28.358437565236148],[77.117017647777814,28.358753589555697],[77.1169291122917,28.359870382873247],[77.116965893128636,28.360614017989821],[77.11739910118645,28.360691028622586],[77.118307214517358,28.360852452819014],[77.118095334681911,28.361510383523349],[77.119999806377436,28.361986349172131],[77.121049671615893,28.361475695314901],[77.120738906671477,28.360719557746535],[77.12164669170879,28.358588659161217],[77.122372741148297,28.359227455647225],[77.124801158496822,28.359411615386016],[77.12645188466432,28.359116105726226],[77.128151183446647,28.358735209329897],[77.128212498968466,28.35879522656424],[77.128353179220625,28.360067594338325],[77.129861166113258,28.361306010128637],[77.130017859417549,28.361188110895426],[77.130007889738138,28.361037584465393],[77.129992487198464,28.360728479514751],[77.130188207401716,28.360662123502653],[77.130249297881377,28.360641410201275],[77.130920782474604,28.360178875798994],[77.130952677623071,28.360192209057008],[77.131399500523798,28.36037899201963],[77.131407502630125,28.360382337269865],[77.13166224382941,28.360052359714707],[77.131810116341015,28.359921377264012],[77.132081712112665,28.359737029726976],[77.13234532811812,28.3594334102037],[77.132361835368769,28.359414398682777],[77.13237797099444,28.35939751436818],[77.132636093949074,28.359127392902515],[77.132742096251604,28.35901646217895],[77.132820613368551,28.358934292141335],[77.132934000872098,28.358816590982368],[77.133478580849712,28.358264487608817],[77.133757991463725,28.35798831467746],[77.133973307488503,28.357713224109641],[77.133991976680008,28.357691814438748],[77.134265246728347,28.357378423271367],[77.134453786794595,28.357162199219438],[77.13453404488304,28.357071482957739],[77.134941384821943,28.356611050457506],[77.13526211971022,28.356248509092627],[77.13539337004876,28.356060503132266],[77.135702936299595,28.355512359190772],[77.135885343134717,28.355252894739266],[77.136030298195607,28.354963915917306],[77.136304253015098,28.354416372118763],[77.136640072476254,28.353799462891249],[77.137235061091573,28.353767246922601],[77.137803649742949,28.353735115748457],[77.137946834650521,28.353740134838606],[77.137978898108059,28.353739684291856],[77.138445314814859,28.353733139671462],[77.13865860764524,28.353713021761365],[77.139370382006518,28.353685902246585],[77.140082457232396,28.353673857732222],[77.140619523809193,28.353659896387455],[77.140794649514035,28.353667612379621],[77.140804308433474,28.353668037280471],[77.141328072482949,28.353665702004371],[77.141506775557303,28.353658080747909],[77.141758619562651,28.353647339402613],[77.142033240096794,28.353599394666812],[77.14221653016601,28.353530576274146],[77.142397320422262,28.353462696558577],[77.142475418560551,28.35343337312888],[77.142872500440205,28.353306433591435],[77.142924021248646,28.353290789307717],[77.143175963073375,28.353214299777022],[77.143632012168609,28.353075839391217],[77.143857017626232,28.353007527777145],[77.144156423396595,28.352995550399548],[77.144344748606358,28.353096919505951],[77.14506303004886,28.353393451492412],[77.145361469639411,28.353527595157711],[77.145646484467051,28.353715339604708],[77.145783903015086,28.353818574446979],[77.146326763898898,28.354246712915437],[77.146710954814552,28.354526942597143],[77.14695133082661,28.35477903131515],[77.147233142532457,28.355039630034515],[77.147487958359036,28.355312839417017],[77.147729683599536,28.355533677421153],[77.14773037718291,28.355661540522409],[77.147712139608714,28.356183923677911],[77.147705661367212,28.356394971188355],[77.147770007500469,28.356936791345912],[77.147834353493465,28.357478613217683],[77.147911312792104,28.357985914226781],[77.147916506483085,28.358020132728743],[77.148016458525078,28.358561347254678],[77.148248239825918,28.358930411479292],[77.148282703339518,28.35898528499014],[77.148330048012042,28.359098937276364],[77.148554627062609,28.359638036971816],[77.148761400006023,28.360177438552995],[77.148968180308898,28.360716839586551],[77.149174961816485,28.361256238364806],[77.14938174363634,28.361795641218148],[77.149588529665806,28.362335039061794],[77.149795317009293,28.362874440062335],[77.149869878680207,28.363087367147163],[77.149984305685734,28.363414142172779],[77.150057496373435,28.36353723033346],[77.15070352768295,28.364623705747295],[77.151115921225525,28.36531724998105],[77.151383544346388,28.365767320561037],[77.151516796961403,28.366102648553351],[77.151739579370499,28.366551286765521],[77.152045870251655,28.36717947593338],[77.152297459161133,28.367718107580046],[77.152557685421712,28.368256590457921],[77.152713097635541,28.368577398491087],[77.152782305891989,28.368795682133502],[77.152953516036519,28.369335680352439],[77.153142532082498,28.369875375242017],[77.153313746137044,28.370415372734875],[77.153413742356406,28.37095658114842],[77.153513740815967,28.371497790279264],[77.153528743306026,28.371579477393293],[77.152560211741473,28.371906123581727],[77.152469936878489,28.371936517153177],[77.151852587923159,28.372144375309006],[77.151458511868015,28.372281116535355],[77.15114496583864,28.372382624344858],[77.15050349705507,28.372634826971069],[77.150438109056125,28.372659122824455],[77.150401227329851,28.372673252476638],[77.150377380877316,28.373179882603164],[77.150385906287795,28.373602002149426],[77.150388342610995,28.373722608752821],[77.15039930260852,28.374265334887568],[77.150406306604978,28.374612075231216],[77.150410263929544,28.374808060959101],[77.150421225535979,28.375350786081462],[77.150439380992836,28.375562119189059],[77.150467797500369,28.375892905788934],[77.150478759913241,28.376435631706407],[77.150476097382196,28.37664693784291],[77.150471919461566,28.37697866024228],[77.150440146788853,28.377522111153883],[77.150454488731967,28.377831703935517],[77.150482304242431,28.378045995703655],[77.150484673651945,28.378064266556731],[77.150487002625468,28.378607138516003],[77.150485689031086,28.378969249367696],[77.150497965355683,28.379149864226626],[77.150508931394768,28.379692587135676],[77.15051441408194,28.379963951737732],[77.150586550686882,28.380007966429169],[77.151306314589831,28.380367889631266],[77.15153931861343,28.380464997304198],[77.152022928051224,28.380571688151168],[77.152379179851437,28.380636965857633],[77.152676344053418,28.380741538781802],[77.152739297174762,28.38076331514468],[77.153456635450695,28.381002725549827],[77.153686897677446,28.381083102088496],[77.154178285048474,28.381454930098243],[77.154514453696294,28.381796061457901],[77.154797761998452,28.382115020500102],[77.154904907982399,28.382152637322733],[77.155380150086998,28.382324222575466],[77.155622393501247,28.382398688945941],[77.155695077036142,28.382429159920999],[77.156341003611701,28.382699948444625],[77.15674028721817,28.382843949604439],[77.157057087272037,28.382876475730612],[77.157771332988347,28.382962091853443],[77.15811043233721,28.382993320249103],[77.158485733881051,28.383055470745163],[77.1585036339916,28.383059755587293],[77.158588477826967,28.383080066091619],[77.15902604791367,28.383347866306963],[77.159069285594072,28.383374328376625],[77.159205620822448,28.383419144309169],[77.15945835323096,28.383495097656919],[77.159924944225907,28.38375478303648],[77.160116634990615,28.383849689022146],[77.16101951781755,28.384287095785552],[77.161213369388804,28.384396333579936],[77.16136494193924,28.384491994220483],[77.162086241466838,28.384924327762164],[77.162809545773953,28.385454873143569],[77.163529175999031,28.385804506279779],[77.164735503221237,28.386384674452195],[77.16486944678644,28.386505456566496],[77.164969533666437,28.386556827668045],[77.165691779992414,28.387034289782743],[77.16576942571325,28.387083407544679],[77.166405909990218,28.387112549478484],[77.167117887753648,28.387085274217551],[77.167242537686334,28.387083139372308],[77.167830173746026,28.387073071750169],[77.168275349985578,28.387065443581925],[77.168875664105428,28.387432173226845],[77.168997161255817,28.387520575396941],[77.169235464813042,28.387677796109745],[77.169268079442261,28.387702931497142],[77.169992600694002,28.388290722509264],[77.170052189366842,28.388337292997274],[77.170520991957645,28.388703698115012],[77.170524507556706,28.388705325822514],[77.170715404983937,28.38879366705968],[77.171009134619368,28.388921883856071],[77.171434351525889,28.389107493815352],[77.171537604068135,28.38915316806931],[77.171819040051929,28.389277662963913],[77.171839589716171,28.389293018522785],[77.172184381660344,28.389550638618754],[77.1722174996289,28.389602994540688],[77.172238752049196,28.38963659276876],[77.172384743079547,28.390055887056231],[77.172426660774192,28.39017627466437],[77.17254895384896,28.390508795176686],[77.172569748008328,28.390565333116854],[77.172625076588446,28.390715775046878],[77.172677104342938,28.390851355151394],[77.172719434557038,28.390961668865685],[77.172832046317637,28.391255126829016],[77.172914382163029,28.391414390120968],[77.173110247980802,28.391793255907526],[77.173148020482941,28.391866885262392],[77.173220895292886,28.392008941354877],[77.173503441174148,28.392318647346009],[77.173513106071837,28.392329241536466],[77.173514170213735,28.3923302360542],[77.173556273761406,28.392369471008873],[77.173640226160344,28.392447705825163],[77.17376008996159,28.392548190681961],[77.173912654583859,28.392676092876094],[77.173909348229444,28.392770105089721],[77.173905997674268,28.392865401106281],[77.173965564111114,28.393072326654071],[77.174009053205495,28.393223398972204],[77.174061511083522,28.393405634068806],[77.174062300824559,28.393419577636326],[77.174069906337223,28.393553910841359],[77.174136959302047,28.393676524945636],[77.174283629418582,28.393944724000427],[77.174314479327066,28.394015160982761],[77.174353014983282,28.394103144462139],[77.174364361152072,28.394129052066631],[77.174420736368731,28.39425776020088],[77.174608145744159,28.394482052080818],[77.174692506781597,28.394580973392451],[77.175005328387954,28.394947790891926],[77.175064450112728,28.395017116538455],[77.175076487921544,28.395032559659008],[77.175187704754521,28.395175238245596],[77.175268618616428,28.395279038004869],[77.175377254151826,28.395484643846689],[77.175413905944708,28.395554014239551],[77.175489552828765,28.395728980840463],[77.175579628741872,28.395937318318936],[77.175646898769699,28.396092914108998],[77.175800548284272,28.396364130709156],[77.175929704677671,28.39659211045916],[77.175951498155499,28.396630581777359],[77.175982953600553,28.396676624355528],[77.175987905761062,28.396770603799677],[77.175991697956405,28.396842624007974],[77.176009066812625,28.397172496643808],[77.176012769098506,28.397296388955702],[77.176016139221773,28.39740906985385],[77.176021785529102,28.397598027046588],[77.176026333150119,28.397750198032206],[77.176028988357572,28.397839028539799],[77.176029188199919,28.397847508942824],[77.176030563428469,28.397906013134804],[77.176035363552629,28.398110181580993],[77.176038382558716,28.398257804032898],[77.17603975668797,28.398325040874621],[77.175192133789309,28.398647726406853],[77.175035921490078,28.398720420177426],[77.174486429106253,28.398985437224294],[77.173781004245214,28.39933717834737],[77.173678231727848,28.399384185711892],[77.17360779305298,28.399416103530349],[77.17325874537832,28.399934300148331],[77.172885483541592,28.400483617155146],[77.172721652121595,28.40074691405832],[77.172827355359686,28.401027520587299],[77.173015432956007,28.401567196401889],[77.17313765277548,28.401968061729782],[77.17305377024573,28.402109444836668],[77.172775101919854,28.402533727299648],[77.172675257018597,28.402658849773935],[77.172221080504016,28.403209555629303],[77.172037853819546,28.403390097393942],[77.171795618127618,28.403759769624131],[77.171477423695507,28.404308136359308],[77.171158664054005,28.404856513256593],[77.171046455009204,28.40501516348592],[77.170343806885981,28.405505333988113],[77.169823601503325,28.405788176781634],[77.16963704703835,28.405794405304469],[77.168924803627164,28.405814763914396],[77.168212392853178,28.405826978932467],[77.167499982675139,28.405839190213158],[77.16740314910453,28.405838761978966],[77.167258807751253,28.40552287087073],[77.165592271912701,28.406202209314454],[77.164522673835577,28.406792698960533],[77.164299981970245,28.408091114082886],[77.164714301320046,28.409254468890822],[77.165097231798754,28.41009946452904],[77.165617595824131,28.410874834064117],[77.166129295164367,28.411637277124576],[77.165613432035627,28.411850353513351],[77.165297794598388,28.412834131822052],[77.165724514971473,28.413996263938138],[77.165773629331994,28.415614580680558],[77.164832636333159,28.417261592216324],[77.164327082917453,28.418179906443378],[77.163145349539619,28.419797660877336],[77.162637102138902,28.420211144417109],[77.16245440444537,28.420302295929403],[77.162041753265854,28.42052031923706],[77.161794828146242,28.420650406536851],[77.16150255029865,28.42080438615622],[77.161369732030195,28.420902870429838],[77.161334952165078,28.420920000165182],[77.160936779187523,28.421018136340543],[77.160693820123072,28.421165373232327],[77.160276836143197,28.421418067819609],[77.16002178869158,28.42154792093984],[77.15960771551697,28.421758735785637],[77.159345867923946,28.421810414735123],[77.159063912229783,28.421846017903331],[77.158715351949027,28.421890030838956],[77.15869827066453,28.421890964969219],[77.158665084628481,28.421922846985833],[77.158035526764351,28.422292694513196],[77.157993041602083,28.422305384369206],[77.157908306591693,28.422330692637402],[77.157315165363158,28.422507847210753],[77.156637141958527,28.422705803803481],[77.156604392546924,28.422715366716673],[77.156432975040175,28.422773150642755],[77.155967175918192,28.423152857118222],[77.155790008457558,28.423321008642528],[77.155695518605938,28.423410687451959],[77.155289994039236,28.423377067712927],[77.155085499624775,28.423369874243306],[77.154934794661685,28.423364570948713],[77.154740659385382,28.423653492279232],[77.154617225797196,28.42373783120426],[77.1541807367107,28.424036072721801],[77.153947583634874,28.424195378398736],[77.153628028681041,28.424378999756279],[77.153412433598163,28.424385230108641],[77.153270948942989,28.424436837506335],[77.153173120554129,28.424472176378146],[77.152907614784283,28.424803012156733],[77.152882875168331,28.424899274411473],[77.152815119717872,28.424918762635109],[77.152418935526327,28.425091483368288],[77.152255242180814,28.425164533706209],[77.151933520257245,28.425410142658809],[77.151791152788348,28.425515941634693],[77.151726658241756,28.425593416100728],[77.151735011333628,28.425676995249514],[77.151758279349764,28.4259098219222],[77.151548931468739,28.426011499461076],[77.151312279990307,28.426126436638022],[77.151272835289305,28.426145592087988],[77.151068630670906,28.426345819664263],[77.150792320699381,28.426458109200212],[77.150600956700373,28.426534847845037],[77.150331913281477,28.426647797644513],[77.149989346835383,28.426856261768314],[77.149928701491234,28.426912536806572],[77.14981246147839,28.427022175529792],[77.149264483148002,28.427539192054223],[77.148884916557975,28.427734322280941],[77.148666250031738,28.427851503906368],[77.148591545269994,28.42789617542142],[77.147920057097721,28.428298174940579],[77.147640246297229,28.428477821579353],[77.147344809983906,28.428528307420979],[77.147243575825613,28.428545607073225],[77.147007360965517,28.428585973871733],[77.146715001086648,28.42863593340104],[77.146596892922716,28.428656115507952],[77.146562730824016,28.42865798080166],[77.146218983246911,28.428656034255614],[77.14588043067738,28.428725334583884],[77.145528473588044,28.428797380959313],[77.145387182159737,28.428821670388285],[77.145199583681219,28.428837703413247],[77.145185943283508,28.428837335538301],[77.144781440427579,28.428826420236469],[77.144562001911666,28.42873110109506],[77.144511476438709,28.428724976498387],[77.144442759792682,28.428716644521419],[77.144181999736389,28.428677133233048],[77.143824816940722,28.428657264605437],[77.143578570239697,28.42864323436185],[77.142920178182735,28.428393944248331],[77.141333630743262,28.428551601067266],[77.139725191983786,28.428881175591673],[77.139043852842804,28.428978507776741],[77.138362763023949,28.429083638704281],[77.138244206166704,28.429101171446177],[77.137962705045183,28.429174962574887],[77.137333888591371,28.429365438513148],[77.137301462520512,28.429375898670617],[77.135986379362322,28.429775492338493],[77.134966631581975,28.429899767228328],[77.134906726988532,28.429896730506776],[77.134829511226954,28.429892817578256],[77.134746314059782,28.4298932872046],[77.134285046574732,28.429989872007599],[77.133749271928139,28.430102054524404],[77.133605851892383,28.430154404195797],[77.133489935594653,28.430220369959009],[77.132931501109738,28.430469596551418],[77.132255930553143,28.430746970165522],[77.131627349611492,28.430990907668356],[77.13157987272939,28.431009333422629],[77.130910854140026,28.431490840164965],[77.130741183838083,28.431536116789388],[77.129553379197347,28.431849229573057],[77.128883348927232,28.432025369015282],[77.1288746471091,28.432028748129323],[77.128198570807669,28.432291094529216],[77.127906347008121,28.432424233148222],[77.127523938955193,28.432598457612801],[77.126899960250043,28.432893560730065],[77.126850745632694,28.432950837520806],[77.126471327366261,28.433392428852695],[77.126277719609973,28.433599004797824],[77.125840400885934,28.433833147565895],[77.1255060422057,28.433708410098724],[77.124869871590846,28.433582676212779],[77.124818145783266,28.433602786624292],[77.124106198742453,28.433879608210898],[77.123759169601797,28.433977984183223],[77.123815439114523,28.433972067291752],[77.1237582737579,28.435651106764947],[77.123749144909894,28.435752195727915],[77.123678794892015,28.436584233207284],[77.123587909615907,28.437659120502229],[77.123498440452735,28.438448826488433],[77.12337657029299,28.43952453189624],[77.123316581553112,28.440004006573758],[77.123238288918131,28.440486776151708],[77.123230221480938,28.441245892890805],[77.123220241846923,28.442184410960976],[77.123219576454701,28.442246919456522],[77.123211241045311,28.443031071762729],[77.123207252418737,28.443122693470833],[77.123166497984812,28.444058823139169],[77.123125745400671,28.444994950877742],[77.123084993735844,28.445931081212724],[77.123071300471437,28.446245606246993],[77.122877213838166,28.446854255747777],[77.122584915057629,28.447770874251326],[77.122317211029227,28.448610353573304],[77.12229261172854,28.448687492280648],[77.122106920831513,28.449269784514268],[77.121723280003195,28.449582622884463],[77.121107801407504,28.450084506440422],[77.120671443065731,28.450440321892003],[77.119956986942881,28.451022901557991],[77.119774392878469,28.451171789572363],[77.11962935640463,28.451298770901808],[77.119436260952099,28.45146783132418],[77.118859656539442,28.451971656824522],[77.118795237763464,28.45206100574849],[77.11871853039618,28.452167398901434],[77.118077201287946,28.453056933788972],[77.117785453048427,28.453461589356209],[77.117598031560931,28.453422852376818],[77.117148554979508,28.453329955476324],[77.116348337286524,28.454449481621531],[77.114260099871657,28.457254057790387],[77.113797126809132,28.458005694454776],[77.113645473617538,28.458250758926464],[77.113206558499812,28.458960026269949],[77.112686585732121,28.459800265466246],[77.112330617687164,28.460677074218502],[77.11325991614315,28.46196219425406],[77.11342919448667,28.462270056522307],[77.11348320526794,28.462419156545273],[77.114065701572358,28.462508499202027],[77.113995622077482,28.465333038841287],[77.114204756213013,28.46662210683964],[77.114742413237835,28.469810738235651],[77.114877742783477,28.471050668565262],[77.115027623416893,28.472423869925116],[77.115265494854398,28.472942634041789],[77.116791013986798,28.475114211137697],[77.117370832541212,28.47597699032621],[77.118557060117254,28.478705298336727],[77.118905183222523,28.479516911723483],[77.119381085380013,28.482146223235691],[77.119637639042594,28.48355045708832],[77.120486967165235,28.485516394247611],[77.120967832876275,28.487276633285123],[77.119082826477566,28.487402649633498],[77.118432388154346,28.487509041290817],[77.117798878370806,28.487642836835384],[77.116793091173804,28.487855250850753],[77.115994009534461,28.488086765579968],[77.11529869041857,28.488288212111936],[77.114421295708325,28.488634436055758],[77.113604607821003,28.488979679698382],[77.113354540185952,28.489094027225793],[77.113163578295669,28.489181348188296],[77.113012626918078,28.489250373792004],[77.112943909508672,28.489281794748919],[77.112437623987972,28.489502931783001],[77.112337902212047,28.489546487957256],[77.111985345617029,28.48970047456223],[77.111651588141925,28.489847504476334],[77.111412365160945,28.489952885958321],[77.111119523732981,28.490081890119502],[77.110714321504389,28.49028556061101],[77.110657717182875,28.490299187878662],[77.110576294561824,28.490341678980958],[77.110312010849299,28.490481669543612],[77.109996526141543,28.490639670148894],[77.109940432099137,28.490672238115163],[77.109726728485583,28.490765067950658],[77.109659761615532,28.490796535929999],[77.10882349330339,28.491183096523319],[77.107857903952521,28.491534611231565],[77.106714696277919,28.491943852002088],[77.106050295669675,28.492262401063002],[77.106009792699197,28.492289621356658],[77.105081473313248,28.49276067472611],[77.104535351191231,28.493029534664316],[77.104138732579599,28.493275315854053],[77.103820347387,28.4934768128782],[77.103500129918459,28.493650567426151],[77.103185154989362,28.493859748635543],[77.10300725695555,28.494001380637386],[77.102432630267074,28.494280174297209],[77.10188341409372,28.494531318555744],[77.101674635935424,28.494626788675578],[77.100669942990038,28.494951539943468],[77.100303943007248,28.495079653099303],[77.100066982238005,28.495162600768445],[77.097438739099644,28.496364342193356],[77.096263011311109,28.497392616801591],[77.095690694792609,28.498125371562953],[77.095642840659707,28.498186643554902],[77.095596723078373,28.498247924841344],[77.095755547318731,28.498572512994571],[77.095765034177091,28.498585217684518],[77.096125395263613,28.499142692570363],[77.096323301665706,28.49945477429117],[77.096442747267119,28.499698759108625],[77.096730793203648,28.500102284781345],[77.096828991588424,28.500257078504745],[77.097223639783337,28.500815670228359],[77.097387844332076,28.501056003466157],[77.097398131008035,28.501055985428263],[77.097618290271569,28.501374263281072],[77.097943008434768,28.501930565595597],[77.097993584994214,28.502004173703021],[77.098042830530389,28.502077826705897],[77.098270508268712,28.502486956647726],[77.098529683686465,28.502828222512459],[77.098234621050509,28.503007906189051],[77.098136265267371,28.503067801539206],[77.098010274112937,28.503144968317617],[77.097261882516349,28.50360333746152],[77.096856195989091,28.503853737236415],[77.096611796539563,28.504001061196522],[77.096510916636618,28.504066420104394],[77.095916098388372,28.50431286452201],[77.095220918483619,28.504607585203551],[77.094844913304655,28.504766987773369],[77.094525471297786,28.504910900388346],[77.094117361101127,28.505079433127467],[77.094041861600289,28.50515140926726],[77.093830943010488,28.505183888630615],[77.093140821148012,28.505312717447243],[77.092450688083488,28.505441692772159],[77.092030886894861,28.505556733234595],[77.091758933901346,28.505623665585343],[77.091627741954838,28.505694275528317],[77.091066485159175,28.505828346547069],[77.090373567050364,28.506048167032066],[77.090223416374315,28.506102552886613],[77.089682270975771,28.506214971383166],[77.088991201799658,28.506374228896259],[77.088653910468139,28.506432785544405],[77.088403188893281,28.506529270188757],[77.088299434510461,28.506556184689433],[77.087729937417308,28.50678834975427],[77.087604651877115,28.506836563983224],[77.087255406670849,28.507037320246585],[77.086907086987779,28.507207794430645],[77.086797912093658,28.507280198368449],[77.086213456730164,28.507450292616042],[77.085876235964591,28.507537773909672],[77.08552074891378,28.507662535960744],[77.085427207095009,28.507693776144464],[77.084827344538098,28.50789747306235],[77.084505820751346,28.508038501936003],[77.084418177077055,28.5080727297054],[77.084133006208049,28.508162690792229],[77.083439517147895,28.508400152465203],[77.083006248628863,28.508534978244477],[77.082747571097755,28.508587119410119],[77.082429876724305,28.508696413733851],[77.082053689097719,28.508837184954437],[77.081912197941648,28.508887482347181],[77.081584457505613,28.509033992168732],[77.081358689801021,28.509123590423563],[77.080920121773531,28.50930992318942],[77.08066359176739,28.509413021309239],[77.080461919814979,28.509495089905968],[77.080116245931038,28.509389192436284],[77.079977360328982,28.509413375860529],[77.079519711263671,28.50951187782103],[77.079311765856247,28.509556453954737],[77.079286954120434,28.509549707099673],[77.078598631550605,28.509618043506595],[77.078295829329221,28.509667987528161],[77.077908914322663,28.509731803384724],[77.077286865943123,28.509819472507843],[77.077220125984113,28.509815275799138],[77.077065414655394,28.509825351128868],[77.076531801727754,28.509883602754275],[77.076253342211899,28.50989205062843],[77.075843009837769,28.5099670683033],[77.075195836229398,28.510027563532841],[77.075157023700257,28.509959168233401],[77.075123439332785,28.509935582555933],[77.074617719401772,28.510202509304996],[77.074461236162151,28.510270275374445],[77.074304659844188,28.510340916638228],[77.074113347058258,28.510425573578502],[77.074059214676666,28.510493514238711],[77.073764993178841,28.510596014743566],[77.073206712857385,28.510898356183272],[77.0731455744355,28.510939433445532],[77.073066180191972,28.511005183115632],[77.072365974288957,28.511459479023408],[77.072182680305161,28.511606053111322],[77.072091755126522,28.511450456731975],[77.072005960924329,28.511284432185771],[77.072141611237797,28.511218579282868],[77.072082981333438,28.510904478971778],[77.072013138076258,28.510659654368901],[77.071985510323927,28.510548573797376],[77.071885344817318,28.510352288233808],[77.071723739841786,28.510028652317541],[77.071671167033088,28.509941171089977],[77.071661126964472,28.509910320748741],[77.071636481859045,28.509798411356023],[77.071387586926065,28.509244533472209],[77.071245452113516,28.508845746378107],[77.071104263239192,28.508689520519756],[77.071080124345571,28.508643252050113],[77.070658490736491,28.50812915986349],[77.070615931743617,28.508082408694573],[77.070476012006949,28.507926101391476],[77.070464483958673,28.507910563756891],[77.070417428020178,28.507878698376473],[77.070195397151892,28.507568230439741],[77.07004696655433,28.507373851783758],[77.070028070910567,28.507354574287639],[77.069706586469337,28.507006448513067],[77.069394563330803,28.506646127006253],[77.069251900083344,28.506445788876118],[77.069094856146137,28.50625872195344],[77.06878900962127,28.505884858112111],[77.06875537317184,28.505840826312348],[77.068625353114115,28.505670623447376],[77.068433118602073,28.50546387095935],[77.068310497346729,28.505323409032272],[77.068162439002904,28.505135982101759],[77.067854282425259,28.504762694236181],[77.067771627281317,28.504661430175354],[77.067514882182138,28.504384931723312],[77.067451027864749,28.504203719953232],[77.067364768328275,28.503982956598108],[77.06728804578168,28.50365266085409],[77.067265622432828,28.503545815676553],[77.067243313967992,28.503493628956477],[77.066605219743906,28.503605350201326],[77.066349165683746,28.503651516954527],[77.066007758625062,28.503713077625669],[77.065922259646769,28.503713368990301],[77.065239446000248,28.503836482851113],[77.064556479534787,28.503944495864573],[77.06421203931292,28.504032747947264],[77.063872931292039,28.50399211606166],[77.063187914916682,28.503888759883754],[77.062715584267636,28.503817489724142],[77.062502903722759,28.503785399215193],[77.061954541977201,28.503666472899084],[77.06181745100713,28.50363674413267],[77.06159257154917,28.503616059744978],[77.061541521251243,28.50361136440856],[77.061184178395408,28.503578493663902],[77.061132587718774,28.503548472189895],[77.060912643521846,28.503519022225092],[77.060858993918828,28.503549549317231],[77.060585979606131,28.503610712253312],[77.060449473254693,28.503641367950518],[77.060421890304497,28.503671657448123],[77.060396024638209,28.50370006387406],[77.060351212994561,28.503671896469051],[77.060095721792308,28.503511289072552],[77.05976519358272,28.503613481273],[77.059581226881875,28.503674494029443],[77.059083099024861,28.503812051663754],[77.058809540132273,28.503897762182749],[77.058401144697868,28.504025716408233],[77.057763173109151,28.504194651078564],[77.057718978635791,28.50421746489592],[77.057642310699151,28.50422453827634],[77.057180366116569,28.504401579877946],[77.057037232316176,28.504453089189095],[77.056356287423341,28.504772371512967],[77.055675703380942,28.505129600409738],[77.055192344160446,28.50531978905784],[77.054994646463584,28.505438175162912],[77.054824484733743,28.505422476572154],[77.054312559474013,28.505639779300395],[77.053717694835399,28.505868229143072],[77.052949050953927,28.506113690606103],[77.052267111009982,28.506331461570085],[77.051997779461104,28.506417465761899],[77.051804190849481,28.506479286776983],[77.051669670294174,28.506500728811623],[77.051584783780172,28.506509423563362],[77.051093647259748,28.506612950468689],[77.050902360804656,28.506677758326518],[77.050553688017885,28.506819602678693],[77.050220982707785,28.506954949219427],[77.050190728887756,28.506966972982752],[77.049539534257804,28.507225786255891],[77.049459879069914,28.507269608520151],[77.048857294264664,28.507413739685081],[77.048503583320198,28.507516060869623],[77.048175178336109,28.507615277233533],[77.047626799075871,28.507759344648647],[77.047492743867025,28.507783596348194],[77.046809659082925,28.507883973377513],[77.046275051293875,28.507984944799151],[77.046195131292777,28.508011448648528],[77.046133501503689,28.508030472620529],[77.046158566979813,28.508093816115949],[77.046176493038914,28.508139119140431],[77.046391604953712,28.508682753392854],[77.046607734716957,28.50910677570824],[77.046668406506853,28.509225809655788],[77.046958921965725,28.509768740672136],[77.047189336926493,28.510209798535037],[77.047242586027636,28.510311730867556],[77.047474845145203,28.510855202813168],[77.047724241508888,28.511398512441069],[77.047990777469792,28.511941662318833],[77.048123991076793,28.512254134856629],[77.047284523953309,28.512721236047962],[77.047252112074759,28.512737355913064],[77.046760195463733,28.512982009672573],[77.046605147716107,28.513076171417879],[77.045946472476672,28.513464816499134],[77.045926560761146,28.513476567201664],[77.045342889624521,28.513755846845797],[77.045246767308925,28.513808157745633],[77.045079578616722,28.513898360678049],[77.044567256682825,28.51415611475047],[77.044445672655499,28.514239523362956],[77.044155787026838,28.514449802899108],[77.04389128651583,28.514708041292174],[77.043389010543422,28.51518274918482],[77.043546131014125,28.515445463260882],[77.043224257674325,28.515775205723276],[77.043190510840645,28.515805832834737],[77.043194695018158,28.515838026994274],[77.043378659205047,28.516197694323449],[77.04304575710529,28.516352816831265],[77.042658946140349,28.516546779657936],[77.042553005565495,28.516599901461927],[77.042041450561626,28.516772551831796],[77.041945534203251,28.516804924579645],[77.041467459742165,28.516970199008796],[77.041422936495309,28.516987387506454],[77.041189959299388,28.517067262006968],[77.041015236698243,28.517125858617547],[77.040508169624417,28.517285781405402],[77.040397744591274,28.517316373270486],[77.040477050809557,28.517467948379842],[77.040648886582005,28.517765456781735],[77.040183190782756,28.517989615801639],[77.039837675132873,28.518155927991142],[77.039276514084932,28.518443365648064],[77.039158120861501,28.518504008888922],[77.039049613026776,28.5185724623243],[77.038479059794355,28.518880880272967],[77.038422159511015,28.518914448044896],[77.037857302320901,28.51924767018312],[77.037800401633888,28.519281237712843],[77.037401986958827,28.519480375567007],[77.037120689154264,28.51962097713432],[77.036700402909631,28.51984049758364],[77.036441231745968,28.519975865314397],[77.035992409343507,28.520237678738063],[77.035847428765166,28.520317841282235],[77.03508289466869,28.520719578639216],[77.035012163710931,28.520792377994653],[77.034898430125793,28.520866577839186],[77.034404670308362,28.521146592229947],[77.034058480882308,28.521311832035646],[77.033724672894749,28.521471159266596],[77.03347006034403,28.521611672491581],[77.033045190538346,28.521826033359577],[77.032366230765717,28.522211209908761],[77.031936708956323,28.522430542247694],[77.031877462679034,28.522460793883308],[77.031841026803576,28.522479400472491],[77.031685957813124,28.522520615402765],[77.031003585071531,28.522708780395114],[77.03032121174536,28.522896942044593],[77.029780943305624,28.523042657563483],[77.029735660455444,28.523064004535769],[77.029671041005486,28.523050206105083],[77.028878098781973,28.523153984884043],[77.028656961003804,28.523167031253639],[77.028197692225589,28.523284728909026],[77.027666622081256,28.523398535135016],[77.027517234204225,28.523430547729003],[77.026836411550505,28.523561367052181],[77.026654827028537,28.523604299461162],[77.026155702299633,28.523722300007414],[77.025678627283114,28.523841510155286],[77.025475289422531,28.523928395110399],[77.024795191664055,28.524179662039408],[77.024114918824438,28.524430336331267],[77.024073844445653,28.524445472821913],[77.023143821941702,28.524816851103736],[77.023086813245754,28.524873257364476],[77.023032089043141,28.524923298666025],[77.022353422271863,28.52561752427097],[77.022080962048804,28.525847081431728],[77.021513575712646,28.526273765153789],[77.0214037551128,28.526399416643038],[77.020725835563212,28.526898223608182],[77.020690222595178,28.52691923517877],[77.020640811926171,28.526953192380738],[77.020124959093749,28.527247344918766],[77.019970817227616,28.527313105918168],[77.019468189371494,28.527558885416912],[77.01936620656744,28.527613198786465],[77.019332180848195,28.527628797559313],[77.019255972214481,28.527690506733144],[77.019094368493811,28.527768062309118],[77.019014745052218,28.527803406648026],[77.018686861791579,28.528022927967118],[77.018633265601878,28.528068929047105],[77.018226373115368,28.528382363229678],[77.017765485712331,28.528624720794749],[77.017614547281923,28.528724629915068],[77.017469975661086,28.528864152340208],[77.016855056294304,28.52970431725101],[77.016735928083833,28.529874199694813],[77.016657415693075,28.529951380086473],[77.016580531248721,28.530055731389425],[77.016524541108453,28.530131722679478],[77.016421893390287,28.530271042834528],[77.016239450122555,28.530430986376235],[77.015980269445862,28.530549158561261],[77.01529837157571,28.530801398374038],[77.014616097649906,28.531038667683639],[77.014297411504927,28.531129108739535],[77.013973314994232,28.53134104468592],[77.013934910121279,28.531366160187233],[77.013892474147227,28.531396960746324],[77.013780847361843,28.531491087877985],[77.013646751189469,28.531604163734976],[77.013595914048665,28.531647325629681],[77.013511182981929,28.531719260915146],[77.013307084416041,28.531881303119384],[77.013256344253875,28.531889058681383],[77.013206158530423,28.531866107005474],[77.012721117721597,28.531644271587812],[77.012478526914862,28.531533319952789],[77.012372145878203,28.531484664438072],[77.012243239345707,28.531425708426433],[77.012075094307249,28.531351615658718],[77.011876319378104,28.531371936947014],[77.011806722992588,28.531375685182194],[77.011704087194659,28.531385008586192],[77.011361857109776,28.531410980956046],[77.011224723817421,28.531426907741793],[77.011190412701168,28.531429009546173],[77.011036122222805,28.531446738727841],[77.010504938945104,28.53153121080619],[77.009910122336976,28.531611310667447],[77.009816754839036,28.531467971216891],[77.009517736276337,28.531111257303998],[77.009365801370222,28.531197387975297],[77.009195541630902,28.531305700655714],[77.009127252068012,28.531336972585752],[77.008861933749088,28.531484587693772],[77.008799042024791,28.531542198772616],[77.008578570240289,28.531744093378322],[77.00838492227652,28.531905414378155],[77.008287625306835,28.531954063033307],[77.007764328782983,28.532166020867944],[77.007408002311806,28.53238392264571],[77.007082284425778,28.532554299646417],[77.006456039741281,28.532788664888361],[77.006395681519365,28.532664255664994],[77.006150623190649,28.532311446072598],[77.005921493592425,28.532077922270279],[77.005631850808328,28.531660640893648],[77.005447530844336,28.53162334489172],[77.005307578615188,28.531546389886127],[77.004997156767089,28.531370970315329],[77.004795173597756,28.53130661086205],[77.004784526602876,28.531012952508966],[77.004746617018696,28.530802581781831],[77.004732067788154,28.530571619937245],[77.004628909319806,28.529930073676763],[77.004621482884204,28.529904528401936],[77.004275224911964,28.529392993546761],[77.00412032095312,28.52911226642879],[77.003861011411217,28.528856662147206],[77.003474255347257,28.528423372264026],[77.003420730054458,28.528320479302003],[77.003126890766879,28.527781616633497],[77.003055058049057,28.527615486516723],[77.002893367211925,28.527241536877121],[77.002856805910469,28.527121241391463],[77.002724075998927,28.526799294020158],[77.002460577457427,28.526160156850352],[77.0024026798406,28.525939256075922],[77.002140391609913,28.525620769544343],[77.002003641108317,28.525508700552024],[77.001202954692033,28.525090748063864],[77.000836663430846,28.524887718742249],[77.000542208234322,28.524799864778103],[77.000355431949799,28.524740310154055],[77.000364002497676,28.524558768217567],[77.000314078559441,28.524014325290924],[77.000269941452373,28.523469624701303],[77.000233553830199,28.523153112222548],[77.000790071383847,28.522890524532993],[77.001051332717608,28.522741599177039],[77.001747564873327,28.52235646956769],[77.002766950429404,28.521780697066632],[77.002781497122371,28.521772480422619],[77.003070764617291,28.521473359426388],[77.003302619225494,28.521242415169034],[77.003396638906466,28.521164008319303],[77.004083017789355,28.520716146252262],[77.004131821676552,28.520684745869403],[77.00417051976774,28.520627995761402],[77.004814036582218,28.520129255208161],[77.005018070819673,28.519954245509222],[77.005497725817904,28.519669296576577],[77.006182381839409,28.519276085866355],[77.006866752152575,28.518872324811749],[77.007107825937823,28.518711996621061],[77.007553255344661,28.518613378997568],[77.007953400505713,28.518493591500068],[77.008103469152687,28.518372763242034],[77.008239339019497,28.518337820011663],[77.008599665077284,28.51822948292968],[77.008926306639268,28.518131274025848],[77.009230540925842,28.518048693507783],[77.009547346328588,28.517880212320737],[77.009611495445426,28.51781870415973],[77.009999014008073,28.51738717356654],[77.010052490831768,28.517327619747167],[77.010196875146818,28.517166837648574],[77.010393617855215,28.517077722526167],[77.010419294660934,28.517066093672387],[77.010794253375991,28.516771835654218],[77.010837419151329,28.516737960974201],[77.011472476827265,28.516595974957216],[77.011661773002615,28.51657828159022],[77.011867399897554,28.516499735671086],[77.011883352689196,28.516493980553001],[77.01234728629386,28.516326589201825],[77.012398738010162,28.516310745789688],[77.012912100260209,28.516075914403139],[77.013032204117494,28.516044645373526],[77.013718232234382,28.515853684355932],[77.014056888627096,28.515765675989126],[77.014257404664136,28.515634392864801],[77.01502476172891,28.515124203836013],[77.015084348624612,28.515077956590737],[77.015552409880641,28.514558533193064],[77.015601616477539,28.514525595215119],[77.015763260000014,28.514394681102857],[77.016187633548043,28.513972350505547],[77.016267895623301,28.51392804093733],[77.016439444155907,28.513506739996245],[77.016472732475634,28.513422906963754],[77.016633334481185,28.513073346764205],[77.016706273485553,28.51287403257718],[77.01688826205995,28.512325704040911],[77.01688681214678,28.512170557413022],[77.016380883683027,28.511719324514154],[77.015590639964643,28.511025078412651],[77.014446289156453,28.510067970859648],[77.013344566769533,28.509145574445533],[77.012939758461542,28.508799038885087],[77.012535254652917,28.508448385453313],[77.012126421327253,28.508096018992681],[77.012007424473794,28.50793184066184],[77.011583511232359,28.507392332905429],[77.011360249963985,28.507142637409888],[77.011072033091637,28.506824712998455],[77.010529864714812,28.506283977906271],[77.010084661618677,28.505840342378743],[77.009574697925359,28.505976260894741],[77.009464472039625,28.506005639774077],[77.009294269063659,28.506063261559383],[77.009130626913006,28.506131163232727],[77.008645021334445,28.506332657065887],[77.008544924040777,28.506364501399304],[77.008460558469906,28.506391340504365],[77.007951006290412,28.506510094050178],[77.007483527195234,28.506615593687826],[77.007258590057418,28.506672130446784],[77.006567179505012,28.506863884874743],[77.006290976551881,28.506943478184219],[77.006160014157146,28.50698358293883],[77.005877017225799,28.507070243776159],[77.005187350055181,28.507366051884723],[77.004877450523196,28.507505676561102],[77.004499130651823,28.507676126824588],[77.003812521666305,28.507985471710089],[77.003649247933168,28.508062571938549],[77.003551828899191,28.508108573629219],[77.003127397332634,28.508308998116281],[77.002444430524221,28.508557319167519],[77.002146053599901,28.508621153787892],[77.001763599574602,28.50870297724213],[77.001672948947729,28.5087280441915],[77.001127741476239,28.508878810357306],[77.001084108149115,28.50884442708179],[77.001038261662714,28.508825980499818],[77.000877046081911,28.508874728394602],[77.000405772510163,28.509017233452891],[77.000279053612815,28.509048397284467],[77.000186076374533,28.509034118488305],[76.999887722215604,28.509091842522619],[76.999728955153387,28.509145236291179],[76.999635385794946,28.509190975556301],[76.999525946582295,28.509244470437299],[76.999052766103347,28.509494972820775],[76.998879806817541,28.509589666209809],[76.998822550202348,28.509619741610841],[76.998598247443923,28.50973756688742],[76.998378200772791,28.509853155408518],[76.99770529193178,28.510206625364013],[76.997545327572269,28.510282338849265],[76.997034042124923,28.510524337817881],[76.996530684866215,28.510821870673016],[76.996390770035177,28.510622932245976],[76.996163356990806,28.510299583142004],[76.996131558400236,28.510216213764007],[76.995962182728476,28.509772119954611],[76.995816822944846,28.509356258048161],[76.995777574738895,28.509243975329664],[76.99569370822374,28.509082887811868],[76.995509118587407,28.508716564873595],[76.995281647994091,28.508275493504357],[76.995023357735946,28.508384045856427],[76.994771038630759,28.508515704382823],[76.994555385509813,28.508730246643847],[76.99440263756874,28.50888220390468],[76.994356177709506,28.508821547890197],[76.994289166028551,28.508734064938302],[76.993887016437299,28.508209049386309],[76.993685923031691,28.507957093152594],[76.993468037963495,28.507684095335691],[76.993098943613759,28.507158152582257],[76.993014981438094,28.507026492440321],[76.992876082556421,28.507043694327063],[76.992788537158972,28.507079340559383],[76.992463050212166,28.506636463018641],[76.992314423530559,28.506357172088919],[76.992297424369809,28.506325226854976],[76.99223918812136,28.5062774290462],[76.992217464352848,28.506228849431213],[76.991533812228738,28.505676935941171],[76.991481935849478,28.505588090757573],[76.991121445008687,28.50506133086466],[76.991004075727886,28.504933624889688],[76.990949827410887,28.504874598562957],[76.990802816767911,28.504901746573712],[76.990725387709006,28.504778724867435],[76.990207826072179,28.505037441188176],[76.989539229743741,28.505271827178426],[76.989268149020333,28.505354869160254],[76.988959320302342,28.505520236457674],[76.988872878397174,28.505566523651673],[76.988729739183995,28.505691432744207],[76.988209246360384,28.505936856716637],[76.9875417888031,28.50626288147815],[76.986872219079515,28.506574489816622],[76.98680970949529,28.506597852163036],[76.98619846123546,28.506826299602345],[76.985985895442511,28.50692032416411],[76.985525663891536,28.507123892576114],[76.985391774067864,28.507201637266355],[76.985304853312385,28.507248752235341],[76.984222039293726,28.507835693948827],[76.984181980880194,28.50785740613594],[76.983506331739292,28.508187350280018],[76.983342292450615,28.508268843124856],[76.983254831031729,28.508310090326525],[76.98323680439978,28.508328644461372],[76.982837778128143,28.508739330337121],[76.982672553976741,28.508886931719875],[76.98217012355353,28.509377173292773],[76.982094963321543,28.509447197230799],[76.981508567922759,28.510009382794436],[76.981099019263993,28.510398015586446],[76.980401770350099,28.510936973881559],[76.980371014046582,28.510961773542995],[76.980320377795564,28.511002601195933],[76.980147258419493,28.511142189896393],[76.979977570158027,28.511284296513178],[76.979892908633431,28.511363137669036],[76.979467667830562,28.511711317685467],[76.979272292973064,28.5118648671227],[76.979050895519322,28.512029801602345],[76.978783274261076,28.512188946363199],[76.978784125009696,28.512220065631919],[76.97876966424883,28.512228709811101],[76.978676950694634,28.512284122992948],[76.978610521702336,28.512323825641246],[76.978335427439518,28.512488246272248],[76.978133707615314,28.512293112633706],[76.978086223320432,28.512247176107476],[76.977912534885192,28.512051540952175],[76.977637145500296,28.511741342700915],[76.977369122180264,28.511476139631053],[76.97729770821249,28.511405476148823],[76.977102389030023,28.511191691352522],[76.976698114432793,28.510749198269352],[76.976654569109826,28.510701532682827],[76.976601071802023,28.510642980444903],[76.976154624935731,28.510094876041542],[76.976032244095521,28.509917583175369],[76.9759420755273,28.509898133097899],[76.975242637170737,28.509663175952792],[76.974871378105888,28.509561484298008],[76.974544564348051,28.509471966430691],[76.974165330227464,28.509368087674119],[76.97384691487072,28.509276098067865],[76.973149706878218,28.509074674551467],[76.973023315600827,28.509038157834794],[76.972831171949366,28.50898264723547],[76.972453062367094,28.508876386636178],[76.971756960172257,28.508680759091725],[76.971170553325649,28.508515957461757],[76.971061365638718,28.508485272112722],[76.970770548517436,28.508403537955942],[76.970365020783348,28.508049692454627],[76.970285127946937,28.507979978164045],[76.969669488255477,28.507442786735169],[76.969051962884038,28.50690394208171],[76.968975984407393,28.506837641633968],[76.968594216278333,28.506504511833882],[76.96843583852791,28.506368027520367],[76.968284499892178,28.506237608725854],[76.967815660382499,28.505833573615774],[76.96759500832195,28.505643420252856],[76.967197077902668,28.505300487679541],[76.966993599873163,28.50512513251406],[76.966907521485865,28.505042671181876],[76.966620988317956,28.504768176831593],[76.966222368630497,28.504386298435957],[76.966066471726677,28.504236947984243],[76.965705775386411,28.503891394533614],[76.96569744984231,28.503882132128432],[76.965403110293735,28.504023044740354],[76.964846529114681,28.504303922952886],[76.964777719691625,28.504332623606853],[76.96452386389106,28.504036330718829],[76.964151361376793,28.503805469130519],[76.963662223381434,28.503498842544047],[76.963456984321752,28.503349686795904],[76.962824082325952,28.502900991342308],[76.962762258344668,28.50286077599602],[76.962068297611154,28.502413974013841],[76.961582606083056,28.50210126181706],[76.961374031493207,28.501936931422101],[76.96078109392252,28.501455609155038],[76.96025350118893,28.501025413726197],[76.959975863948486,28.500828237460563],[76.959549513725875,28.500488140658888],[76.959289429240116,28.500314502634847],[76.959188237963474,28.500238030936423],[76.95881118131436,28.499951394883475],[76.95859504704444,28.499784573628325],[76.958358576631184,28.499621730404819],[76.958074741796594,28.499414746554898],[76.957901063162254,28.499272299036562],[76.957542902990724,28.49902546587483],[76.957336758632465,28.498878237087883],[76.957207516112248,28.498780726549448],[76.956747496174671,28.498446348938568],[76.956600672453845,28.498341826839177],[76.956513824880687,28.498267150625523],[76.955921958995376,28.497829152736717],[76.955889642945564,28.497805236620625],[76.9558203861979,28.497760644583987],[76.955161620216501,28.497268967211276],[76.955126900767482,28.497239109949117],[76.954979572486906,28.49713468977988],[76.95443554554042,28.496868981215677],[76.954059253388067,28.496675704178067],[76.953898557790936,28.496593166308926],[76.953744502390691,28.496514036694673],[76.953096487350805,28.496204013882892],[76.953053658444546,28.49616616746567],[76.952946699588281,28.496125820910294],[76.952366168322612,28.496076525535557],[76.951678984732524,28.496009035349065],[76.951360894823807,28.495991307639603],[76.950992199944849,28.495971789924592],[76.950305250717633,28.49591941952286],[76.949724429570594,28.495873423235036],[76.949618499337419,28.495882172043334],[76.9489326628577,28.495920537132392],[76.948606573079701,28.495946433044981],[76.948246547964189,28.495935608779064],[76.947560624345314,28.495967010876019],[76.947019790997047,28.496051680785158],[76.946874856425325,28.496012321963104],[76.946187389703269,28.495907604623291],[76.945924237774037,28.49587693307636],[76.945499780322763,28.495786859547604],[76.944811802686743,28.495628465340641],[76.944139005364292,28.495347299168834],[76.944150442414056,28.49530332954031],[76.944134236636216,28.495308149992475],[76.943455957311102,28.495647678298671],[76.942777835836154,28.495994448102518],[76.942099495463481,28.496326666910146],[76.94142119799757,28.496659569459091],[76.941046262838398,28.496851365559365],[76.940743168576759,28.497005570186413],[76.940329910252217,28.497206226256154],[76.940311740405633,28.497215048394402],[76.940234102912996,28.49689308772923],[76.94022735264096,28.496865093017746],[76.940130375406042,28.496406005662976],[76.940122273709505,28.496350646605297],[76.940095467765644,28.496167462611837],[76.940076261819812,28.496036220300368],[76.940031840234454,28.495814908640295],[76.939962850112181,28.49551319999134],[76.939906243223234,28.495265645930857],[76.939903981606051,28.495255754738686],[76.939878486790676,28.495107129353126],[76.939859664848626,28.494994282839038],[76.939814402064471,28.49472290273842],[76.939813170032636,28.494715521707086],[76.939702633918856,28.49418044836024],[76.939701597467263,28.494175438698772],[76.939588803469732,28.493635295350135],[76.939584331831426,28.493620783918566],[76.939585168780752,28.493607847173198],[76.939618497574642,28.493093563070726],[76.939618501048869,28.493093529633054],[76.939679232293088,28.492551422907663],[76.939679458525035,28.492548601543163],[76.939722924115486,28.492009389699454],[76.939723362582484,28.492003931255585],[76.939756943070975,28.491587340637235],[76.93976662142515,28.491467280575929],[76.939767014337193,28.491459275360409],[76.939778167884043,28.491232438960491],[76.939793272071114,28.490925276666264],[76.93979378242166,28.490914868538088],[76.939819927374515,28.490383197758355],[76.939820566924766,28.490370471373158],[76.93983429577662,28.490097523508908],[76.940075964375012,28.489838579090918],[76.940083754551381,28.489829586650281],[76.940639353611587,28.489188191825306],[76.940646726256844,28.489179774719247],[76.940660903197411,28.489163585702588],[76.94066439194782,28.489159604211931],[76.94107002055398,28.488743899598166],[76.941092392373861,28.488720700211616],[76.941439627055232,28.488360624737034],[76.94162063810893,28.488169414266082],[76.941636538046509,28.488153571418959],[76.942171831309395,28.487638465725425],[76.942190856507395,28.487617602430984],[76.942559214874123,28.487213670838941],[76.942573197718943,28.487101065038328],[76.942577892003413,28.487068381395385],[76.942651237986567,28.486557859765067],[76.942698917904764,28.486285414584543],[76.94274635197867,28.486014391442563],[76.942749503127303,28.485999122335876],[76.942753801525242,28.485978289896359],[76.942777040206948,28.485865660055666],[76.942858547565763,28.485470658126655],[76.9428752826893,28.485364977521456],[76.942882290870344,28.485320729266874],[76.942883697984911,28.48531184416429],[76.942885081376005,28.485303113707889],[76.942894709358058,28.485276604003289],[76.943021956257084,28.484926288276871],[76.943204990340917,28.484381625947059],[76.943376153590364,28.483837011299073],[76.943401814176823,28.483734434446966],[76.943512321791218,28.483292701016001],[76.943624604213269,28.482748569721906],[76.943693230764481,28.482416008565206],[76.94370854070506,28.482341812456617],[76.943735825032505,28.482209597087738],[76.943742984691724,28.482158423557756],[76.943816747363968,28.48164441123021],[76.94385322975856,28.481295499190729],[76.943872282069535,28.481176114254009],[76.943939681092871,28.480753821510515],[76.943971435417467,28.480572393985032],[76.943978439598865,28.480518819622237],[76.943999278980399,28.480359405655033],[76.944029066920109,28.480131526392153],[76.944066711205494,28.480028059741784],[76.944210114238913,28.479550204038365],[76.944241247291231,28.479433295656222],[76.9443511034914,28.479046688323887],[76.944349004066268,28.479029872702057],[76.944325621749485,28.478938403398523],[76.94416472140459,28.478396673467532],[76.944047071777163,28.478008812430335],[76.944000387661589,28.477854908427698],[76.943896513074165,28.477493631984533],[76.943775902221489,28.477153021028609],[76.9437160778063,28.476770674675791],[76.943662837924279,28.476369808392402],[76.943641879236765,28.476248049196645],[76.943641724546154,28.476245346068151],[76.94362167664336,28.476227919842675],[76.943262551374389,28.475688038603632],[76.943186869722339,28.47552268507355],[76.943141640928062,28.47546280878916],[76.943112582457687,28.475417698955372],[76.942942624674814,28.475147658313855],[76.942663354279517,28.474693045119711],[76.94261886049739,28.47462061682285],[76.942610705931529,28.474607341992183],[76.942596361797115,28.474577896481289],[76.942347098822466,28.47406619675926],[76.94208346471784,28.473524983590593],[76.94206427769825,28.473499977426105],[76.941679391117162,28.4729980524551],[76.941670082588359,28.472985379683408],[76.941471856070493,28.472659514907161],[76.941333925315746,28.472444843131505],[76.94131482072153,28.472399696289422],[76.941170809847506,28.472201979375647],[76.94095054851708,28.471904772147745],[76.940615668378257,28.471453306644442],[76.940550039974596,28.471364828018466],[76.940393325451979,28.471154843093611],[76.940273864622938,28.470989120640478],[76.940056437063575,28.470687489329222],[76.939765985573857,28.470284552008128],[76.939675765480942,28.470169611211595],[76.939473019312544,28.469911310286324],[76.939365765995063,28.469774668056019],[76.939340158162054,28.469744696073658],[76.939309762679812,28.469709119086154],[76.938879193679526,28.469205173625856],[76.938874467490706,28.469198626546081],[76.938600136813037,28.468818709112401],[76.938461373457727,28.468665101113864],[76.93833980004041,28.468497330436957],[76.938304486034838,28.468448599773875],[76.938229459935954,28.468322221944721],[76.938111893457332,28.468124187504252],[76.937925968047537,28.467833772866388],[76.93783601147112,28.467693258757052],[76.937816931763024,28.467656055551217],[76.937779471352428,28.4675830180113],[76.937604553423867,28.467301908384499],[76.937447014755264,28.467041779459944],[76.93734333484511,28.466850778070103],[76.937114520702963,28.466500477306386],[76.936905085893969,28.466200003158384],[76.936796958442443,28.466087147076699],[76.936185555827123,28.465448988430786],[76.936158717435021,28.465420976121273],[76.936148787509055,28.465408647447941],[76.936145261246224,28.465404268750042],[76.935723493942902,28.464880641799198],[76.935663998226161,28.464800421122884],[76.935560142912593,28.464660387351806],[76.935412997337409,28.464446467789283],[76.935339529193129,28.46433966211054],[76.935133900766488,28.463897816173219],[76.935041034908025,28.463797641839761],[76.935031241128598,28.463789182369357],[76.935018858938008,28.463778492035008],[76.93497137597744,28.463737491006029],[76.935081208633761,28.463742092331568],[76.938161570248425,28.463745963753983],[76.949626695785781,28.463608486588722],[76.952263280500546,28.458556907736742],[76.953624466106561,28.45594874103352],[76.953836758267173,28.455504471415587],[76.956531184442142,28.45111656570927],[76.95711966716658,28.450105029766153],[76.958167521330637,28.448303823526334],[76.958308011595776,28.448062321942633],[76.959598741749161,28.445843528386799],[76.959637351859257,28.445777153489747]]]},"properties":{"objectid":1,"shape_leng":94048.193316399993,"Shape__Area":298274182.50762498,"Shape__Length":94051.893167685514}}]}